{
  "type": "FeatureCollection",
  "name": "fields",
  "features": [
    {
      "type": "Feature",
      "properties": {
        "objectid": 26052,
        "field_name": "Acrux",
        "countries": "Australia",
        "basin_name": "Taroom Trough (Bowen - Surat Bsns)",
        "opr_curr": "QGC Upstream Holdings Pty Ltd",
        "prod_stat": "Producing",
        "hc_type": "Gas (coal-bed)",
        "res_mag": "100,000-1mil mmscfg",
        "region_nm": "Australasia",
        "gn_hc_type": "Gas Fields",
        "alt_fname": "Acrux QCLNG",
        "fld_sqkm": null,
        "group_curr": "QGC UPSTR 6",
        "opr_ac_cur": "QGC UPSTR",
        "org_grp_nm": "BNG (Surat) Pty Ltd",
        "org_op_ac": "BNG SR",
        "org_op_nm": "BNG (Surat) Pty Ltd",
        "block_curr": "PL 398~PL 399",
        "org_contnm": "ATP 768-P~ATP 768-P(a)",
        "pol_prov": "Queensland",
        "admin_zone": "",
        "ons_off": "Onshore",
        "terrain": "Grassland",
        "dscv_basis": "Geology & seismic",
        "dis_dat_yr": 2010,
        "dsc_wel_nm": "Acrux 001",
        "dsc_w_tdm": 497.12,
        "dsc_w_tdft": 1631.0,
        "dsc_wbhlu": "",
        "dsc_wbhlt": "",
        "dsc_wbh": "",
        "dpwl_name": "Acrux 156",
        "dpwl_tdm": 599.0,
        "dpwl_tdft": 1965.0,
        "dpwl_bhlu": "",
        "dpwl_bhlt": "",
        "dp_well_bh": "",
        "wd_max_m": null,
        "elev_mx_m": 294.54,
        "wd_max_ft": null,
        "elev_mx_ft": 966.34,
        "por_max": 15.0,
        "por_qu": "",
        "prmb_max": 1.4,
        "prmb_quun": "millidarcies",
        "oil_in_plc": null,
        "oil_rec_mm": null,
        "oil_rec_f": null,
        "oil_rs_das": "",
        "oil_rs_dat": null,
        "gas_in_plc": 440000.0,
        "gas_recov": 220000.0,
        "gas_rec_f": 50.0,
        "gas_resdas": "Operator via govt",
        "gas_res_dt": "2015-06-15",
        "cond_place": null,
        "crec_mmbbl": null,
        "cond_r_fac": null,
        "cond_rs_ds": "",
        "cond_date": null,
        "oil_rem_mm": null,
        "gas_rem_pp": 220000.0,
        "crem_mmbbl": null,
        "rem_pp_mmb": 36.67,
        "oil_prrfie": "",
        "oil_cp_dat": null,
        "oil_cp": null,
        "oil_prty": "",
        "oil_prquun": "",
        "oil_prdasr": "",
        "gas_prrfie": "Polaris",
        "gas_cp_dat": null,
        "c_gasmmscf": null,
        "gas_prty": "",
        "gas_prquun": "",
        "cumgas_ds": "",
        "cond_cpfie": "",
        "cnd_cp_yea": null,
        "cond_cp": null,
        "cond_cp_ty": "",
        "cond_cpq": "",
        "cnd_prdasr": "",
        "tot_pr_yr": null,
        "tot_pr_mmb": 0.0,
        "dev_dec_dt": null,
        "dev_appr": null,
        "prod_start": "2014-01-15",
        "prod_stop": null,
        "temp_sh_d": null,
        "prod_imdt": null,
        "prod_eor": null,
        "latitude": "S 26`02'38.832\"",
        "longitude": "E 149`48'44.920\"",
        "lat_dec": -26.04412,
        "long_dec": 149.812478,
        "coord_qual": "Reliable with datum",
        "coord_loc": "Discovery well",
        "datum": "W.G.S. 84",
        "dsc_wbh_yr": null,
        "dpwl_bhyr": null,
        "data_own": "IHS Energy",
        "cond_rs_tx": "",
        "dev_apr_tx": "",
        "dev_dec_tx": "",
        "dis_dat_tx": "June 2010",
        "gas_rsdttx": "June 2015",
        "fld_re_dtt": "",
        "oilrs_datt": "",
        "prod_endtt": "",
        "prod_imdtt": "",
        "prod_stdtt": "January 2014",
        "prod_stopt": "",
        "temp_sh_dt": "",
        "sit_code": "ONS",
        "terrain_c": "GR",
        "fie_id": 100000043709.0,
        "gp_id": 605504.0,
        "anl_prod": "Y",
        "bib_flg": "Y",
        "oil_pragfl": "",
        "cumgas_flg": "Y",
        "cnd_pragf": "",
        "field_o0": "N",
        "imag_flag": "Y",
        "rmrks_flag": "Y",
        "uni_gp_flg": "N",
        "gas_ip_oe": 73.333333,
        "gas_rec_oe": 36.666667,
        "w84_lat": "S 26`02'38.832\"",
        "w84_lon": "E 149`48'44.920\"",
        "w84_lat_dg": -26.04412,
        "w84_lon_dg": 149.812478,
        "dattrfqual": "Reliable shift",
        "dattrf_id": 1150,
        "lt_an_oilb": null,
        "lt_an_gasf": null,
        "lt_an_conb": null,
        "lt_an_year": null,
        "field_type": "Actual",
        "field_lgkm": null,
        "field_wdkm": null,
        "cumul_w3": "",
        "cumul_r6": "",
        "cumul_n9": "Y",
        "resourc12": "Unconventional",
        "unc_type1": "Coal Bed Methane",
        "offsh_d15": "",
        "tot_in_18": 73.33,
        "tot_rec21": 36.67,
        "latest_24": null,
        "latest_27": null,
        "latest_30": null,
        "latest_33": null,
        "latest_36": null,
        "latest_39": null,
        "monthly42": "N"
      },
      "geometry": {
        "type": "Point",
        "coordinates": [
          16675935.570500001,
          -3003307.465599999
        ]
      }
    },
    {
      "type": "Feature",
      "properties": {
        "objectid": 29785,
        "field_name": "Acme West 2",
        "countries": "Australia",
        "basin_name": "Exmouth Plateau (North Carnarvon Basin)",
        "opr_curr": "Chevron Australia Pty Ltd",
        "prod_stat": "Appraising",
        "hc_type": "Gas",
        "res_mag": "100,000-1mil mmscfg",
        "region_nm": "Australasia",
        "gn_hc_type": "Gas Fields",
        "alt_fname": "",
        "fld_sqkm": null,
        "group_curr": "CHEVRON 36",
        "opr_ac_cur": "CHEVRON",
        "org_grp_nm": "Chevron Group 4",
        "org_op_ac": "CHEVRON",
        "org_op_nm": "Chevron Australia Pty Ltd",
        "block_curr": "WA-42-R",
        "org_contnm": "WA-205-P~WA-205-P (a)",
        "pol_prov": "Western Australia area (offshore)",
        "admin_zone": "",
        "ons_off": "Offshore",
        "terrain": "Deep Water",
        "dscv_basis": "Geology & seismic",
        "dis_dat_yr": 2011,
        "dsc_wel_nm": "Acme West 2",
        "dsc_w_tdm": 4474.0,
        "dsc_w_tdft": 14678.0,
        "dsc_wbhlu": "",
        "dsc_wbhlt": "",
        "dsc_wbh": "",
        "dpwl_name": "Acme West 2",
        "dpwl_tdm": 4474.0,
        "dpwl_tdft": 14678.0,
        "dpwl_bhlu": "",
        "dpwl_bhlt": "",
        "dp_well_bh": "",
        "wd_max_m": 925.2,
        "elev_mx_m": null,
        "wd_max_ft": 3035.44,
        "elev_mx_ft": null,
        "por_max": null,
        "por_qu": "",
        "prmb_max": null,
        "prmb_quun": "",
        "oil_in_plc": null,
        "oil_rec_mm": null,
        "oil_rec_f": null,
        "oil_rs_das": "",
        "oil_rs_dat": null,
        "gas_in_plc": 500000.0,
        "gas_recov": 300000.0,
        "gas_rec_f": 60.0,
        "gas_resdas": "Poor estimate",
        "gas_res_dt": "2011-10-25",
        "cond_place": 3.0,
        "crec_mmbbl": 1.5,
        "cond_r_fac": 50.0,
        "cond_rs_ds": "Poor estimate",
        "cond_date": "2011-10-25",
        "oil_rem_mm": null,
        "gas_rem_pp": 300000.0,
        "crem_mmbbl": 1.5,
        "rem_pp_mmb": 51.5,
        "oil_prrfie": "",
        "oil_cp_dat": null,
        "oil_cp": null,
        "oil_prty": "",
        "oil_prquun": "",
        "oil_prdasr": "",
        "gas_prrfie": "",
        "gas_cp_dat": null,
        "c_gasmmscf": null,
        "gas_prty": "",
        "gas_prquun": "",
        "cumgas_ds": "",
        "cond_cpfie": "",
        "cnd_cp_yea": null,
        "cond_cp": null,
        "cond_cp_ty": "",
        "cond_cpq": "",
        "cnd_prdasr": "",
        "tot_pr_yr": null,
        "tot_pr_mmb": 0.0,
        "dev_dec_dt": null,
        "dev_appr": null,
        "prod_start": null,
        "prod_stop": null,
        "temp_sh_d": null,
        "prod_imdt": null,
        "prod_eor": null,
        "latitude": "S 20`12'15.282\"",
        "longitude": "E 114`47'56.670\"",
        "lat_dec": -20.204245,
        "long_dec": 114.799075,
        "coord_qual": "Reliable coords",
        "coord_loc": "Discovery well",
        "datum": "GDA94",
        "dsc_wbh_yr": null,
        "dpwl_bhyr": null,
        "data_own": "IHS Energy",
        "cond_rs_tx": "October 2011",
        "dev_apr_tx": "",
        "dev_dec_tx": "",
        "dis_dat_tx": "October 2011",
        "gas_rsdttx": "October 2011",
        "fld_re_dtt": "",
        "oilrs_datt": "",
        "prod_endtt": "",
        "prod_imdtt": "",
        "prod_stdtt": "",
        "prod_stopt": "",
        "temp_sh_dt": "",
        "sit_code": "OFF",
        "terrain_c": "DW",
        "fie_id": 100000040981.0,
        "gp_id": 601100.0,
        "anl_prod": "N",
        "bib_flg": "Y",
        "oil_pragfl": "",
        "cumgas_flg": "",
        "cnd_pragf": "",
        "field_o0": "N",
        "imag_flag": "Y",
        "rmrks_flag": "Y",
        "uni_gp_flg": "N",
        "gas_ip_oe": 83.333333,
        "gas_rec_oe": 50.0,
        "w84_lat": "S 20`12'15.282\"",
        "w84_lon": "E 114`47'56.670\"",
        "w84_lat_dg": -20.204245,
        "w84_lon_dg": 114.799075,
        "dattrfqual": "Reliable shift",
        "dattrf_id": 1150,
        "lt_an_oilb": null,
        "lt_an_gasf": null,
        "lt_an_conb": null,
        "lt_an_year": null,
        "field_type": "Actual",
        "field_lgkm": null,
        "field_wdkm": null,
        "cumul_w3": "",
        "cumul_r6": "",
        "cumul_n9": "",
        "resourc12": "Conventional",
        "unc_type1": "",
        "offsh_d15": "",
        "tot_in_18": 86.33,
        "tot_rec21": 51.5,
        "latest_24": null,
        "latest_27": null,
        "latest_30": null,
        "latest_33": null,
        "latest_36": null,
        "latest_39": null,
        "monthly42": "N"
      },
      "geometry": {
        "type": "Point",
        "coordinates": [
          12778261.3776,
          -2296056.166700002
        ]
      }
    },
    {
      "type": "Feature",
      "properties": {
        "objectid": 22322,
        "field_name": "Acrasia",
        "countries": "Australia",
        "basin_name": "Warburton - Cooper - Eromanga Basins",
        "opr_curr": "Impress (Cooper Basin) Pty Ltd",
        "prod_stat": "Temporarily shut-in",
        "hc_type": "Oil",
        "res_mag": "1-10 million bo",
        "region_nm": "Australasia",
        "gn_hc_type": "Oil Fields",
        "alt_fname": "",
        "fld_sqkm": 1.97,
        "group_curr": "IMPRESS CB",
        "opr_ac_cur": "IMPRESS CB",
        "org_grp_nm": "Stuart Petroleum Group 1A",
        "org_op_ac": "STUART PT",
        "org_op_nm": "Stuart Petroleum NL",
        "block_curr": "PPL 203~PPL 203 Acrasia",
        "org_contnm": "PEL 90~PEL 90 Candra",
        "pol_prov": "South Australia",
        "admin_zone": "",
        "ons_off": "Onshore",
        "terrain": "Shrubland",
        "dscv_basis": "Geology & seismic",
        "dis_dat_yr": 2002,
        "dsc_wel_nm": "Acrasia 1",
        "dsc_w_tdm": 2360.0,
        "dsc_w_tdft": 7743.0,
        "dsc_wbhlu": "Basement",
        "dsc_wbhlt": "",
        "dsc_wbh": "Proterozoic",
        "dpwl_name": "Acrasia 2",
        "dpwl_tdm": 2377.0,
        "dpwl_tdft": 7799.0,
        "dpwl_bhlu": "Basement",
        "dpwl_bhlt": "",
        "dp_well_bh": "Proterozoic",
        "wd_max_m": null,
        "elev_mx_m": 131.7,
        "wd_max_ft": null,
        "elev_mx_ft": 432.09,
        "por_max": 16.70000076,
        "por_qu": "Reliable",
        "prmb_max": null,
        "prmb_quun": "",
        "oil_in_plc": 3.7,
        "oil_rec_mm": 1.123587,
        "oil_rec_f": 30.0,
        "oil_rs_das": "Estimate within 15%",
        "oil_rs_dat": "2021-12-15",
        "gas_in_plc": null,
        "gas_recov": 110.0,
        "gas_rec_f": null,
        "gas_resdas": "Estimate within 50%",
        "gas_res_dt": "2021-12-15",
        "cond_place": null,
        "crec_mmbbl": null,
        "cond_r_fac": null,
        "cond_rs_ds": "",
        "cond_date": null,
        "oil_rem_mm": 0.024943,
        "gas_rem_pp": 110.0,
        "crem_mmbbl": null,
        "rem_pp_mmb": 0.04,
        "oil_prrfie": "",
        "oil_cp_dat": 2020,
        "oil_cp": 1.098644,
        "oil_prty": "True cumulative",
        "oil_prquun": "Reliable; expressed in bbl",
        "oil_prdasr": "Government direct",
        "gas_prrfie": "",
        "gas_cp_dat": null,
        "c_gasmmscf": null,
        "gas_prty": "",
        "gas_prquun": "",
        "cumgas_ds": "",
        "cond_cpfie": "",
        "cnd_cp_yea": null,
        "cond_cp": null,
        "cond_cp_ty": "",
        "cond_cpq": "",
        "cnd_prdasr": "",
        "tot_pr_yr": 2020,
        "tot_pr_mmb": 1.098644,
        "dev_dec_dt": null,
        "dev_appr": null,
        "prod_start": "2002-09-15",
        "prod_stop": null,
        "temp_sh_d": "2019-07-15",
        "prod_imdt": null,
        "prod_eor": null,
        "latitude": "S 27`13'58.598\"",
        "longitude": "E 140`59'47.573\"",
        "lat_dec": -27.232944,
        "long_dec": 140.996548,
        "coord_qual": "Reliable with datum",
        "coord_loc": "Discovery well",
        "datum": "W.G.S. 84",
        "dsc_wbh_yr": 538.8,
        "dpwl_bhyr": 538.8,
        "data_own": "IHS Energy",
        "cond_rs_tx": "",
        "dev_apr_tx": "",
        "dev_dec_tx": "",
        "dis_dat_tx": "April 2002",
        "gas_rsdttx": "December 2021",
        "fld_re_dtt": "",
        "oilrs_datt": "December 2021",
        "prod_endtt": "",
        "prod_imdtt": "",
        "prod_stdtt": "September 2002",
        "prod_stopt": "",
        "temp_sh_dt": "July 2019",
        "sit_code": "ONS",
        "terrain_c": "SB",
        "fie_id": 100000023491.0,
        "gp_id": 100000001272.0,
        "anl_prod": "Y",
        "bib_flg": "Y",
        "oil_pragfl": "N",
        "cumgas_flg": "",
        "cnd_pragf": "",
        "field_o0": "Y",
        "imag_flag": "Y",
        "rmrks_flag": "Y",
        "uni_gp_flg": "N",
        "gas_ip_oe": null,
        "gas_rec_oe": 0.018333,
        "w84_lat": "S 27`13'58.598\"",
        "w84_lon": "E 140`59'47.573\"",
        "w84_lat_dg": -27.232944,
        "w84_lon_dg": 140.996548,
        "dattrfqual": "Original WGS84 Coord",
        "dattrf_id": null,
        "lt_an_oilb": 0.0,
        "lt_an_gasf": null,
        "lt_an_conb": null,
        "lt_an_year": 2020,
        "field_type": "Actual",
        "field_lgkm": 2.68,
        "field_wdkm": 1.15,
        "cumul_w3": "N",
        "cumul_r6": "",
        "cumul_n9": "",
        "resourc12": "Conventional",
        "unc_type1": "",
        "offsh_d15": "",
        "tot_in_18": 3.7,
        "tot_rec21": 1.14,
        "latest_24": null,
        "latest_27": null,
        "latest_30": null,
        "latest_33": 0.0,
        "latest_36": null,
        "latest_39": 0.0,
        "monthly42": "Y"
      },
      "geometry": {
        "type": "Point",
        "coordinates": [
          15693827.377999999,
          -3152458.0590000004
        ]
      }
    },
    {
      "type": "Feature",
      "properties": {
        "objectid": 3812,
        "field_name": "Acme 1",
        "countries": "Australia",
        "basin_name": "Exmouth Plateau (North Carnarvon Basin)",
        "opr_curr": "Chevron Australia Pty Ltd",
        "prod_stat": "Appraising",
        "hc_type": "Gas",
        "res_mag": "1-10 million mmscfg",
        "region_nm": "Australasia",
        "gn_hc_type": "Gas Fields",
        "alt_fname": "",
        "fld_sqkm": 24.05,
        "group_curr": "CHEVRON 36",
        "opr_ac_cur": "CHEVRON",
        "org_grp_nm": "Chevron Group 4",
        "org_op_ac": "CHEVRON",
        "org_op_nm": "Chevron Australia Pty Ltd",
        "block_curr": "WA-42-R",
        "org_contnm": "WA-205-P",
        "pol_prov": "Western Australia area (offshore)",
        "admin_zone": "",
        "ons_off": "Offshore",
        "terrain": "Deep Water",
        "dscv_basis": "Geology & seismic",
        "dis_dat_yr": 2010,
        "dsc_wel_nm": "Acme 1",
        "dsc_w_tdm": 4715.0,
        "dsc_w_tdft": 15469.0,
        "dsc_wbhlu": "",
        "dsc_wbhlt": "",
        "dsc_wbh": "",
        "dpwl_name": "Acme 1",
        "dpwl_tdm": 4715.0,
        "dpwl_tdft": 15469.0,
        "dpwl_bhlu": "",
        "dpwl_bhlt": "",
        "dp_well_bh": "",
        "wd_max_m": 878.0,
        "elev_mx_m": null,
        "wd_max_ft": 2880.58,
        "elev_mx_ft": null,
        "por_max": null,
        "por_qu": "",
        "prmb_max": null,
        "prmb_quun": "",
        "oil_in_plc": null,
        "oil_rec_mm": null,
        "oil_rec_f": null,
        "oil_rs_das": "",
        "oil_rs_dat": null,
        "gas_in_plc": 2500000.0,
        "gas_recov": 1500000.0,
        "gas_rec_f": 60.0,
        "gas_resdas": "Poor estimate",
        "gas_res_dt": "2010-08-15",
        "cond_place": 15.0,
        "crec_mmbbl": 7.5,
        "cond_r_fac": 50.0,
        "cond_rs_ds": "Poor estimate",
        "cond_date": "2010-08-15",
        "oil_rem_mm": null,
        "gas_rem_pp": 1500000.0,
        "crem_mmbbl": 7.5,
        "rem_pp_mmb": 257.5,
        "oil_prrfie": "",
        "oil_cp_dat": null,
        "oil_cp": null,
        "oil_prty": "",
        "oil_prquun": "",
        "oil_prdasr": "",
        "gas_prrfie": "",
        "gas_cp_dat": null,
        "c_gasmmscf": null,
        "gas_prty": "",
        "gas_prquun": "",
        "cumgas_ds": "",
        "cond_cpfie": "",
        "cnd_cp_yea": null,
        "cond_cp": null,
        "cond_cp_ty": "",
        "cond_cpq": "",
        "cnd_prdasr": "",
        "tot_pr_yr": null,
        "tot_pr_mmb": 0.0,
        "dev_dec_dt": null,
        "dev_appr": null,
        "prod_start": null,
        "prod_stop": null,
        "temp_sh_d": null,
        "prod_imdt": null,
        "prod_eor": null,
        "latitude": "S 20`12'26.955\"",
        "longitude": "E 114`49'08.792\"",
        "lat_dec": -20.207488,
        "long_dec": 114.819109,
        "coord_qual": "Reliable with datum",
        "coord_loc": "Discovery well",
        "datum": "W.G.S. 84",
        "dsc_wbh_yr": null,
        "dpwl_bhyr": null,
        "data_own": "IHS Energy",
        "cond_rs_tx": "August 2010",
        "dev_apr_tx": "",
        "dev_dec_tx": "",
        "dis_dat_tx": "22 July 2010",
        "gas_rsdttx": "August 2010",
        "fld_re_dtt": "",
        "oilrs_datt": "",
        "prod_endtt": "",
        "prod_imdtt": "",
        "prod_stdtt": "",
        "prod_stopt": "",
        "temp_sh_dt": "",
        "sit_code": "OFF",
        "terrain_c": "DW",
        "fie_id": 100000039779.0,
        "gp_id": 601100.0,
        "anl_prod": "N",
        "bib_flg": "Y",
        "oil_pragfl": "",
        "cumgas_flg": "",
        "cnd_pragf": "",
        "field_o0": "Y",
        "imag_flag": "Y",
        "rmrks_flag": "Y",
        "uni_gp_flg": "N",
        "gas_ip_oe": 416.666667,
        "gas_rec_oe": 250.0,
        "w84_lat": "S 20`12'26.955\"",
        "w84_lon": "E 114`49'08.792\"",
        "w84_lat_dg": -20.207488,
        "w84_lon_dg": 114.819109,
        "dattrfqual": "Original WGS84 Coord",
        "dattrf_id": null,
        "lt_an_oilb": null,
        "lt_an_gasf": null,
        "lt_an_conb": null,
        "lt_an_year": null,
        "field_type": "Actual",
        "field_lgkm": 10.22,
        "field_wdkm": 2.94,
        "cumul_w3": "",
        "cumul_r6": "",
        "cumul_n9": "",
        "resourc12": "Conventional",
        "unc_type1": "",
        "offsh_d15": "",
        "tot_in_18": 431.67,
        "tot_rec21": 257.5,
        "latest_24": null,
        "latest_27": null,
        "latest_30": null,
        "latest_33": null,
        "latest_36": null,
        "latest_39": null,
        "monthly42": "N"
      },
      "geometry": {
        "type": "Point",
        "coordinates": [
          12780865.919799998,
          -2294520.5769000016
        ]
      }
    },
    {
      "type": "Feature",
      "properties": {
        "objectid": 28302,
        "field_name": "Achilles 1",
        "countries": "Australia",
        "basin_name": "Exmouth Plateau (North Carnarvon Basin)",
        "opr_curr": "Chevron Australia (WA-374-P) Pty Ltd",
        "prod_stat": "Appraising",
        "hc_type": "Gas",
        "res_mag": "100,000-1mil mmscfg",
        "region_nm": "Australasia",
        "gn_hc_type": "Gas Fields",
        "alt_fname": "",
        "fld_sqkm": 102.3,
        "group_curr": "CHEVRON 14",
        "opr_ac_cur": "CHEVRON374",
        "org_grp_nm": "Chevron Group 14",
        "org_op_ac": "CHEVRON",
        "org_op_nm": "Chevron Australia Pty Ltd",
        "block_curr": "WA-73-R",
        "org_contnm": "WA-374-P",
        "pol_prov": "Western Australia area (offshore)",
        "admin_zone": "",
        "ons_off": "Offshore",
        "terrain": "Deep Water",
        "dscv_basis": "Geology & seismic",
        "dis_dat_yr": 2009,
        "dsc_wel_nm": "Achilles 1",
        "dsc_w_tdm": 4533.0,
        "dsc_w_tdft": 14872.0,
        "dsc_wbhlu": "Mungaroo Formation",
        "dsc_wbhlt": "sandstone",
        "dsc_wbh": "Norian",
        "dpwl_name": "",
        "dpwl_tdm": null,
        "dpwl_tdft": null,
        "dpwl_bhlu": "",
        "dpwl_bhlt": "",
        "dp_well_bh": "",
        "wd_max_m": 1151.0,
        "elev_mx_m": null,
        "wd_max_ft": 3776.25,
        "elev_mx_ft": null,
        "por_max": 17.0,
        "por_qu": "",
        "prmb_max": 150.0,
        "prmb_quun": "millidarcies",
        "oil_in_plc": null,
        "oil_rec_mm": null,
        "oil_rec_f": null,
        "oil_rs_das": "",
        "oil_rs_dat": null,
        "gas_in_plc": 1600000.0,
        "gas_recov": 960000.0,
        "gas_rec_f": 60.0,
        "gas_resdas": "Poor estimate",
        "gas_res_dt": "2009-11-05",
        "cond_place": 4.8,
        "crec_mmbbl": 2.5,
        "cond_r_fac": 52.0,
        "cond_rs_ds": "Poor estimate",
        "cond_date": "2025-03-15",
        "oil_rem_mm": null,
        "gas_rem_pp": 960000.0,
        "crem_mmbbl": 2.5,
        "rem_pp_mmb": 162.5,
        "oil_prrfie": "",
        "oil_cp_dat": null,
        "oil_cp": null,
        "oil_prty": "",
        "oil_prquun": "",
        "oil_prdasr": "",
        "gas_prrfie": "",
        "gas_cp_dat": null,
        "c_gasmmscf": null,
        "gas_prty": "",
        "gas_prquun": "",
        "cumgas_ds": "",
        "cond_cpfie": "",
        "cnd_cp_yea": null,
        "cond_cp": null,
        "cond_cp_ty": "",
        "cond_cpq": "",
        "cnd_prdasr": "",
        "tot_pr_yr": null,
        "tot_pr_mmb": 0.0,
        "dev_dec_dt": null,
        "dev_appr": null,
        "prod_start": null,
        "prod_stop": null,
        "temp_sh_d": null,
        "prod_imdt": null,
        "prod_eor": null,
        "latitude": "S 20`12'54.794\"",
        "longitude": "E 114`32'13.681\"",
        "lat_dec": -20.215221,
        "long_dec": 114.537134,
        "coord_qual": "Reliable coords",
        "coord_loc": "Discovery well",
        "datum": "GDA94",
        "dsc_wbh_yr": 205.74,
        "dpwl_bhyr": null,
        "data_own": "IHS Energy",
        "cond_rs_tx": "March 2025",
        "dev_apr_tx": "",
        "dev_dec_tx": "",
        "dis_dat_tx": "02 October 2009",
        "gas_rsdttx": "November 2009",
        "fld_re_dtt": "",
        "oilrs_datt": "",
        "prod_endtt": "",
        "prod_imdtt": "",
        "prod_stdtt": "",
        "prod_stopt": "",
        "temp_sh_dt": "",
        "sit_code": "OFF",
        "terrain_c": "DW",
        "fie_id": 100000039148.0,
        "gp_id": 601100.0,
        "anl_prod": "N",
        "bib_flg": "Y",
        "oil_pragfl": "",
        "cumgas_flg": "",
        "cnd_pragf": "",
        "field_o0": "Y",
        "imag_flag": "Y",
        "rmrks_flag": "Y",
        "uni_gp_flg": "N",
        "gas_ip_oe": 266.666667,
        "gas_rec_oe": 160.0,
        "w84_lat": "S 20`12'54.794\"",
        "w84_lon": "E 114`32'13.681\"",
        "w84_lat_dg": -20.215221,
        "w84_lon_dg": 114.537134,
        "dattrfqual": "Reliable shift",
        "dattrf_id": 1150,
        "lt_an_oilb": null,
        "lt_an_gasf": null,
        "lt_an_conb": null,
        "lt_an_year": null,
        "field_type": "Actual",
        "field_lgkm": 27.4,
        "field_wdkm": 6.4,
        "cumul_w3": "",
        "cumul_r6": "",
        "cumul_n9": "",
        "resourc12": "Conventional",
        "unc_type1": "",
        "offsh_d15": "",
        "tot_in_18": 271.47,
        "tot_rec21": 162.5,
        "latest_24": null,
        "latest_27": null,
        "latest_30": null,
        "latest_33": null,
        "latest_36": null,
        "latest_39": null,
        "monthly42": "N"
      },
      "geometry": {
        "type": "Point",
        "coordinates": [
          12744477.581999999,
          -2308201.280699998
        ]
      }
    },
    {
      "type": "Feature",
      "properties": {
        "objectid": 30705,
        "field_name": "Abalone 1",
        "countries": "Australia",
        "basin_name": "Caswell Sub-basin (Browse Basin)",
        "opr_curr": "",
        "prod_stat": "Discovery",
        "hc_type": "Gas",
        "res_mag": "< 100,000 mmscfg",
        "region_nm": "Australasia",
        "gn_hc_type": "Gas Fields",
        "alt_fname": "",
        "fld_sqkm": 21.09,
        "group_curr": "",
        "opr_ac_cur": "",
        "org_grp_nm": "Japan Petroleum Expl Co Ltd",
        "org_op_ac": "JAPEX",
        "org_op_nm": "Japan Petroleum Exploration Co",
        "block_curr": "",
        "org_contnm": "AC/P29",
        "pol_prov": "Ashmore and Cartier Islands (offshore)",
        "admin_zone": "",
        "ons_off": "Offshore",
        "terrain": "Deep Water",
        "dscv_basis": "Geology & seismic",
        "dis_dat_yr": 2000,
        "dsc_wel_nm": "Abalone 1ST1",
        "dsc_w_tdm": 4795.0,
        "dsc_w_tdft": 15732.0,
        "dsc_wbhlu": "Upper Vulcan Formation",
        "dsc_wbhlt": "",
        "dsc_wbh": "Lower Valanginian",
        "dpwl_name": "Abalone 1ST1",
        "dpwl_tdm": 4795.0,
        "dpwl_tdft": 15732.0,
        "dpwl_bhlu": "Upper Vulcan Formation",
        "dpwl_bhlt": "",
        "dp_well_bh": "Lower Valanginian",
        "wd_max_m": 406.0,
        "elev_mx_m": null,
        "wd_max_ft": 1332.02,
        "elev_mx_ft": null,
        "por_max": 16.0,
        "por_qu": "",
        "prmb_max": 1532.4,
        "prmb_quun": "millidarcies",
        "oil_in_plc": null,
        "oil_rec_mm": null,
        "oil_rec_f": null,
        "oil_rs_das": "",
        "oil_rs_dat": null,
        "gas_in_plc": 30000.0,
        "gas_recov": 18000.0,
        "gas_rec_f": 60.0,
        "gas_resdas": "Poor estimate",
        "gas_res_dt": "2017-01-15",
        "cond_place": null,
        "crec_mmbbl": 0.018,
        "cond_r_fac": null,
        "cond_rs_ds": "Poor estimate",
        "cond_date": "2017-01-15",
        "oil_rem_mm": null,
        "gas_rem_pp": 18000.0,
        "crem_mmbbl": 0.018,
        "rem_pp_mmb": 3.02,
        "oil_prrfie": "",
        "oil_cp_dat": null,
        "oil_cp": null,
        "oil_prty": "",
        "oil_prquun": "",
        "oil_prdasr": "",
        "gas_prrfie": "",
        "gas_cp_dat": null,
        "c_gasmmscf": null,
        "gas_prty": "",
        "gas_prquun": "",
        "cumgas_ds": "",
        "cond_cpfie": "",
        "cnd_cp_yea": null,
        "cond_cp": null,
        "cond_cp_ty": "",
        "cond_cpq": "",
        "cnd_prdasr": "",
        "tot_pr_yr": null,
        "tot_pr_mmb": 0.0,
        "dev_dec_dt": null,
        "dev_appr": null,
        "prod_start": null,
        "prod_stop": null,
        "temp_sh_d": null,
        "prod_imdt": null,
        "prod_eor": null,
        "latitude": "S 13`07'26.535\"",
        "longitude": "E 123`11'20.161\"",
        "lat_dec": -13.124038,
        "long_dec": 123.188934,
        "coord_qual": "Reliable with datum",
        "coord_loc": "Discovery well",
        "datum": "GDA94",
        "dsc_wbh_yr": 135.4,
        "dpwl_bhyr": 135.4,
        "data_own": "IHS Energy",
        "cond_rs_tx": "January 2017",
        "dev_apr_tx": "",
        "dev_dec_tx": "",
        "dis_dat_tx": "November 2000",
        "gas_rsdttx": "January 2017",
        "fld_re_dtt": "",
        "oilrs_datt": "",
        "prod_endtt": "",
        "prod_imdtt": "",
        "prod_stdtt": "",
        "prod_stopt": "",
        "temp_sh_dt": "",
        "sit_code": "OFF",
        "terrain_c": "DW",
        "fie_id": 100000044532.0,
        "gp_id": 100000003395.0,
        "anl_prod": "N",
        "bib_flg": "Y",
        "oil_pragfl": "",
        "cumgas_flg": "",
        "cnd_pragf": "",
        "field_o0": "Y",
        "imag_flag": "Y",
        "rmrks_flag": "Y",
        "uni_gp_flg": "N",
        "gas_ip_oe": 5.0,
        "gas_rec_oe": 3.0,
        "w84_lat": "S 13`07'26.535\"",
        "w84_lon": "E 123`11'20.161\"",
        "w84_lat_dg": -13.124038,
        "w84_lon_dg": 123.188934,
        "dattrfqual": "Reliable shift",
        "dattrf_id": 1150,
        "lt_an_oilb": null,
        "lt_an_gasf": null,
        "lt_an_conb": null,
        "lt_an_year": null,
        "field_type": "Actual",
        "field_lgkm": 10.63,
        "field_wdkm": 3.32,
        "cumul_w3": "",
        "cumul_r6": "",
        "cumul_n9": "",
        "resourc12": "Conventional",
        "unc_type1": "",
        "offsh_d15": "",
        "tot_in_18": 5.0,
        "tot_rec21": 3.02,
        "latest_24": null,
        "latest_27": null,
        "latest_30": null,
        "latest_33": null,
        "latest_36": null,
        "latest_39": null,
        "monthly42": "N"
      },
      "geometry": {
        "type": "Point",
        "coordinates": [
          13708069.335699998,
          -1473148.3575000018
        ]
      }
    },
    {
      "type": "Feature",
      "properties": {
        "objectid": 29784,
        "field_name": "Acme West 1",
        "countries": "Australia",
        "basin_name": "Exmouth Plateau (North Carnarvon Basin)",
        "opr_curr": "Chevron Australia Pty Ltd",
        "prod_stat": "Appraising",
        "hc_type": "Gas",
        "res_mag": "100,000-1mil mmscfg",
        "region_nm": "Australasia",
        "gn_hc_type": "Gas Fields",
        "alt_fname": "",
        "fld_sqkm": null,
        "group_curr": "CHEVRON 36",
        "opr_ac_cur": "CHEVRON",
        "org_grp_nm": "Chevron Group 4",
        "org_op_ac": "CHEVRON",
        "org_op_nm": "Chevron Australia Pty Ltd",
        "block_curr": "WA-42-R",
        "org_contnm": "WA-205-P",
        "pol_prov": "Western Australia area (offshore)",
        "admin_zone": "",
        "ons_off": "Offshore",
        "terrain": "Deep Water",
        "dscv_basis": "Geology & seismic",
        "dis_dat_yr": 2011,
        "dsc_wel_nm": "Acme West 1",
        "dsc_w_tdm": 4742.0,
        "dsc_w_tdft": 15558.0,
        "dsc_wbhlu": "",
        "dsc_wbhlt": "",
        "dsc_wbh": "",
        "dpwl_name": "Acme West 1",
        "dpwl_tdm": 4742.0,
        "dpwl_tdft": 15558.0,
        "dpwl_bhlu": "",
        "dpwl_bhlt": "",
        "dp_well_bh": "",
        "wd_max_m": 925.2,
        "elev_mx_m": null,
        "wd_max_ft": 3035.44,
        "elev_mx_ft": null,
        "por_max": null,
        "por_qu": "",
        "prmb_max": null,
        "prmb_quun": "",
        "oil_in_plc": null,
        "oil_rec_mm": null,
        "oil_rec_f": null,
        "oil_rs_das": "",
        "oil_rs_dat": null,
        "gas_in_plc": 1500000.0,
        "gas_recov": 900000.0,
        "gas_rec_f": 60.0,
        "gas_resdas": "Poor estimate",
        "gas_res_dt": "2011-10-25",
        "cond_place": 9.0,
        "crec_mmbbl": 4.5,
        "cond_r_fac": 50.0,
        "cond_rs_ds": "Poor estimate",
        "cond_date": "2011-10-25",
        "oil_rem_mm": null,
        "gas_rem_pp": 900000.0,
        "crem_mmbbl": 4.5,
        "rem_pp_mmb": 154.5,
        "oil_prrfie": "",
        "oil_cp_dat": null,
        "oil_cp": null,
        "oil_prty": "",
        "oil_prquun": "",
        "oil_prdasr": "",
        "gas_prrfie": "",
        "gas_cp_dat": null,
        "c_gasmmscf": null,
        "gas_prty": "",
        "gas_prquun": "",
        "cumgas_ds": "",
        "cond_cpfie": "",
        "cnd_cp_yea": null,
        "cond_cp": null,
        "cond_cp_ty": "",
        "cond_cpq": "",
        "cnd_prdasr": "",
        "tot_pr_yr": null,
        "tot_pr_mmb": 0.0,
        "dev_dec_dt": null,
        "dev_appr": null,
        "prod_start": null,
        "prod_stop": null,
        "temp_sh_d": null,
        "prod_imdt": null,
        "prod_eor": null,
        "latitude": "S 20`12'15.282\"",
        "longitude": "E 114`47'56.670\"",
        "lat_dec": -20.204245,
        "long_dec": 114.799075,
        "coord_qual": "Reliable coords",
        "coord_loc": "Discovery well",
        "datum": "GDA94",
        "dsc_wbh_yr": null,
        "dpwl_bhyr": null,
        "data_own": "IHS Energy",
        "cond_rs_tx": "October 2011",
        "dev_apr_tx": "",
        "dev_dec_tx": "",
        "dis_dat_tx": "October 2011",
        "gas_rsdttx": "October 2011",
        "fld_re_dtt": "",
        "oilrs_datt": "",
        "prod_endtt": "",
        "prod_imdtt": "",
        "prod_stdtt": "",
        "prod_stopt": "",
        "temp_sh_dt": "",
        "sit_code": "OFF",
        "terrain_c": "DW",
        "fie_id": 100000040980.0,
        "gp_id": 601100.0,
        "anl_prod": "N",
        "bib_flg": "Y",
        "oil_pragfl": "",
        "cumgas_flg": "",
        "cnd_pragf": "",
        "field_o0": "N",
        "imag_flag": "Y",
        "rmrks_flag": "Y",
        "uni_gp_flg": "N",
        "gas_ip_oe": 250.0,
        "gas_rec_oe": 150.0,
        "w84_lat": "S 20`12'15.282\"",
        "w84_lon": "E 114`47'56.670\"",
        "w84_lat_dg": -20.204245,
        "w84_lon_dg": 114.799075,
        "dattrfqual": "Reliable shift",
        "dattrf_id": 1150,
        "lt_an_oilb": null,
        "lt_an_gasf": null,
        "lt_an_conb": null,
        "lt_an_year": null,
        "field_type": "Actual",
        "field_lgkm": null,
        "field_wdkm": null,
        "cumul_w3": "",
        "cumul_r6": "",
        "cumul_n9": "",
        "resourc12": "Conventional",
        "unc_type1": "",
        "offsh_d15": "",
        "tot_in_18": 259.0,
        "tot_rec21": 154.5,
        "latest_24": null,
        "latest_27": null,
        "latest_30": null,
        "latest_33": null,
        "latest_36": null,
        "latest_39": null,
        "monthly42": "N"
      },
      "geometry": {
        "type": "Point",
        "coordinates": [
          12778261.3776,
          -2296056.166700002
        ]
      }
    },
    {
      "type": "Feature",
      "properties": {
        "objectid": 32380,
        "field_name": "Adelie 1",
        "countries": "Australia",
        "basin_name": "Warburton - Cooper - Eromanga Basins",
        "opr_curr": "Santos Ltd",
        "prod_stat": "Appraising",
        "hc_type": "Oil",
        "res_mag": "< 1 million bo",
        "region_nm": "Australasia",
        "gn_hc_type": "Oil Fields",
        "alt_fname": "",
        "fld_sqkm": null,
        "group_curr": "SANTOS 39",
        "opr_ac_cur": "SANTOS",
        "org_grp_nm": "Santos Group 39",
        "org_op_ac": "SANTOS",
        "org_op_nm": "Santos Ltd",
        "block_curr": "ATP 1189-P~ATP 1189-P Total 66",
        "org_contnm": "",
        "pol_prov": "Queensland",
        "admin_zone": "",
        "ons_off": "Onshore",
        "terrain": "Desert",
        "dscv_basis": "Geology & seismic",
        "dis_dat_yr": 2018,
        "dsc_wel_nm": "Adelie 1",
        "dsc_w_tdm": 2485.0,
        "dsc_w_tdft": 8153.0,
        "dsc_wbhlu": "Pre-Permian Unit",
        "dsc_wbhlt": "siltstone",
        "dsc_wbh": "Gzhelian and older",
        "dpwl_name": "Adelie 1",
        "dpwl_tdm": 2485.0,
        "dpwl_tdft": 8153.0,
        "dpwl_bhlu": "Pre-Permian Unit",
        "dpwl_bhlt": "siltstone",
        "dp_well_bh": "Gzhelian and older",
        "wd_max_m": null,
        "elev_mx_m": 96.9,
        "wd_max_ft": null,
        "elev_mx_ft": 317.91,
        "por_max": 14.30000019,
        "por_qu": "",
        "prmb_max": 3500.0,
        "prmb_quun": "millidarcies",
        "oil_in_plc": 2.0,
        "oil_rec_mm": 0.4,
        "oil_rec_f": 20.0,
        "oil_rs_das": "Poor estimate",
        "oil_rs_dat": "2018-07-15",
        "gas_in_plc": null,
        "gas_recov": null,
        "gas_rec_f": null,
        "gas_resdas": "",
        "gas_res_dt": null,
        "cond_place": null,
        "crec_mmbbl": null,
        "cond_r_fac": null,
        "cond_rs_ds": "",
        "cond_date": null,
        "oil_rem_mm": 0.4,
        "gas_rem_pp": null,
        "crem_mmbbl": null,
        "rem_pp_mmb": 0.4,
        "oil_prrfie": "",
        "oil_cp_dat": null,
        "oil_cp": null,
        "oil_prty": "",
        "oil_prquun": "",
        "oil_prdasr": "",
        "gas_prrfie": "",
        "gas_cp_dat": null,
        "c_gasmmscf": null,
        "gas_prty": "",
        "gas_prquun": "",
        "cumgas_ds": "",
        "cond_cpfie": "",
        "cnd_cp_yea": null,
        "cond_cp": null,
        "cond_cp_ty": "",
        "cond_cpq": "",
        "cnd_prdasr": "",
        "tot_pr_yr": null,
        "tot_pr_mmb": 0.0,
        "dev_dec_dt": null,
        "dev_appr": null,
        "prod_start": null,
        "prod_stop": null,
        "temp_sh_d": null,
        "prod_imdt": null,
        "prod_eor": null,
        "latitude": "S 28`09'29.066\"",
        "longitude": "E 141`03'39.284\"",
        "lat_dec": -28.158074,
        "long_dec": 141.060912,
        "coord_qual": "Reliable with datum",
        "coord_loc": "Discovery well",
        "datum": "GDA94",
        "dsc_wbh_yr": 298.89,
        "dpwl_bhyr": 298.89,
        "data_own": "IHS Energy",
        "cond_rs_tx": "",
        "dev_apr_tx": "",
        "dev_dec_tx": "",
        "dis_dat_tx": "June 2018",
        "gas_rsdttx": "",
        "fld_re_dtt": "",
        "oilrs_datt": "July 2018",
        "prod_endtt": "",
        "prod_imdtt": "",
        "prod_stdtt": "",
        "prod_stopt": "",
        "temp_sh_dt": "",
        "sit_code": "ONS",
        "terrain_c": "DE",
        "fie_id": 100000045348.0,
        "gp_id": 100000001272.0,
        "anl_prod": "N",
        "bib_flg": "N",
        "oil_pragfl": "",
        "cumgas_flg": "",
        "cnd_pragf": "",
        "field_o0": "N",
        "imag_flag": "Y",
        "rmrks_flag": "Y",
        "uni_gp_flg": "N",
        "gas_ip_oe": null,
        "gas_rec_oe": null,
        "w84_lat": "S 28`09'29.066\"",
        "w84_lon": "E 141`03'39.284\"",
        "w84_lat_dg": -28.158074,
        "w84_lon_dg": 141.060912,
        "dattrfqual": "Reliable shift",
        "dattrf_id": 1150,
        "lt_an_oilb": null,
        "lt_an_gasf": null,
        "lt_an_conb": null,
        "lt_an_year": null,
        "field_type": "Actual",
        "field_lgkm": null,
        "field_wdkm": null,
        "cumul_w3": "",
        "cumul_r6": "",
        "cumul_n9": "",
        "resourc12": "Conventional",
        "unc_type1": "",
        "offsh_d15": "",
        "tot_in_18": 2.0,
        "tot_rec21": 0.4,
        "latest_24": null,
        "latest_27": null,
        "latest_30": null,
        "latest_33": null,
        "latest_36": null,
        "latest_39": null,
        "monthly42": "N"
      },
      "geometry": {
        "type": "Point",
        "coordinates": [
          15701715.6998,
          -3267655.3926
        ]
      }
    },
    {
      "type": "Feature",
      "properties": {
        "objectid": 22247,
        "field_name": "Aberdeen 1",
        "countries": "Australia",
        "basin_name": "Chinchilla-Goondiwindi Slope (Bowen - Surat Bsns)",
        "opr_curr": "QGC Pty Ltd",
        "prod_stat": "Discovery",
        "hc_type": "Gas (coal-bed)",
        "res_mag": "< 100,000 mmscfg",
        "region_nm": "Australasia",
        "gn_hc_type": "Gas Fields",
        "alt_fname": "",
        "fld_sqkm": null,
        "group_curr": "QGC 38",
        "opr_ac_cur": "QGC",
        "org_grp_nm": "Bobwyns Group 1",
        "org_op_ac": "BOBWYNS",
        "org_op_nm": "Bobwyns Pty Ltd",
        "block_curr": "PL 1010",
        "org_contnm": "ATP 621-P",
        "pol_prov": "Queensland",
        "admin_zone": "",
        "ons_off": "Onshore",
        "terrain": "Grassland",
        "dscv_basis": "Geology & seismic",
        "dis_dat_yr": 2001,
        "dsc_wel_nm": "Aberdeen 01",
        "dsc_w_tdm": 570.1,
        "dsc_w_tdft": 1870.0,
        "dsc_wbhlu": "",
        "dsc_wbhlt": "",
        "dsc_wbh": "",
        "dpwl_name": "Aberdeen 07",
        "dpwl_tdm": 691.0,
        "dpwl_tdft": 2267.0,
        "dpwl_bhlu": "",
        "dpwl_bhlt": "",
        "dp_well_bh": "",
        "wd_max_m": null,
        "elev_mx_m": 300.0,
        "wd_max_ft": null,
        "elev_mx_ft": 984.25,
        "por_max": 18.0,
        "por_qu": "",
        "prmb_max": 7.8,
        "prmb_quun": "millidarcies",
        "oil_in_plc": null,
        "oil_rec_mm": null,
        "oil_rec_f": null,
        "oil_rs_das": "",
        "oil_rs_dat": null,
        "gas_in_plc": 40000.0,
        "gas_recov": 20000.0,
        "gas_rec_f": 50.0,
        "gas_resdas": "Estimate within 50%",
        "gas_res_dt": "2014-12-15",
        "cond_place": null,
        "crec_mmbbl": null,
        "cond_r_fac": null,
        "cond_rs_ds": "",
        "cond_date": null,
        "oil_rem_mm": null,
        "gas_rem_pp": 20000.0,
        "crem_mmbbl": null,
        "rem_pp_mmb": 3.33,
        "oil_prrfie": "",
        "oil_cp_dat": null,
        "oil_cp": null,
        "oil_prty": "",
        "oil_prquun": "",
        "oil_prdasr": "",
        "gas_prrfie": "",
        "gas_cp_dat": null,
        "c_gasmmscf": null,
        "gas_prty": "",
        "gas_prquun": "",
        "cumgas_ds": "",
        "cond_cpfie": "",
        "cnd_cp_yea": null,
        "cond_cp": null,
        "cond_cp_ty": "",
        "cond_cpq": "",
        "cnd_prdasr": "",
        "tot_pr_yr": null,
        "tot_pr_mmb": 0.0,
        "dev_dec_dt": null,
        "dev_appr": null,
        "prod_start": null,
        "prod_stop": null,
        "temp_sh_d": null,
        "prod_imdt": null,
        "prod_eor": null,
        "latitude": "S 27`23'33.000\"",
        "longitude": "E 150`43'50.000\"",
        "lat_dec": -27.3925,
        "long_dec": 150.730556,
        "coord_qual": "Reliable with datum",
        "coord_loc": "Discovery well",
        "datum": "GDA94",
        "dsc_wbh_yr": null,
        "dpwl_bhyr": null,
        "data_own": "IHS Energy",
        "cond_rs_tx": "",
        "dev_apr_tx": "",
        "dev_dec_tx": "",
        "dis_dat_tx": "May 2001",
        "gas_rsdttx": "December 2014",
        "fld_re_dtt": "",
        "oilrs_datt": "",
        "prod_endtt": "",
        "prod_imdtt": "",
        "prod_stdtt": "",
        "prod_stopt": "",
        "temp_sh_dt": "",
        "sit_code": "ONS",
        "terrain_c": "GR",
        "fie_id": 100000023421.0,
        "gp_id": 100000003453.0,
        "anl_prod": "N",
        "bib_flg": "Y",
        "oil_pragfl": "",
        "cumgas_flg": "",
        "cnd_pragf": "",
        "field_o0": "N",
        "imag_flag": "Y",
        "rmrks_flag": "Y",
        "uni_gp_flg": "N",
        "gas_ip_oe": 6.666667,
        "gas_rec_oe": 3.333333,
        "w84_lat": "S 27`23'33.000\"",
        "w84_lon": "E 150`43'50.000\"",
        "w84_lat_dg": -27.3925,
        "w84_lon_dg": 150.730556,
        "dattrfqual": "Reliable shift",
        "dattrf_id": 1150,
        "lt_an_oilb": null,
        "lt_an_gasf": null,
        "lt_an_conb": null,
        "lt_an_year": null,
        "field_type": "Actual",
        "field_lgkm": null,
        "field_wdkm": null,
        "cumul_w3": "",
        "cumul_r6": "",
        "cumul_n9": "",
        "resourc12": "Unconventional",
        "unc_type1": "Coal Bed Methane",
        "offsh_d15": "",
        "tot_in_18": 6.67,
        "tot_rec21": 3.33,
        "latest_24": null,
        "latest_27": null,
        "latest_30": null,
        "latest_33": null,
        "latest_36": null,
        "latest_39": null,
        "monthly42": "N"
      },
      "geometry": {
        "type": "Point",
        "coordinates": [
          16778135.545999996,
          -3171341.8874999993
        ]
      }
    },
    {
      "type": "Feature",
      "properties": {
        "objectid": 22326,
        "field_name": "Acrus",
        "countries": "Australia",
        "basin_name": "Warburton - Cooper - Eromanga Basins",
        "opr_curr": "Santos Ltd",
        "prod_stat": "Producing",
        "hc_type": "Gas,condensate",
        "res_mag": "< 100,000 mmscfg",
        "region_nm": "Australasia",
        "gn_hc_type": "Gas Fields",
        "alt_fname": "",
        "fld_sqkm": 0.68,
        "group_curr": "SANTOS 62",
        "opr_ac_cur": "SANTOS",
        "org_grp_nm": "Santos Group 62",
        "org_op_ac": "SANTOS",
        "org_op_nm": "Santos Ltd",
        "block_curr": "PL 131~PL 131 Juno/Baryulah",
        "org_contnm": "PL 131~PL 131 Juno/Baryulah",
        "pol_prov": "Queensland",
        "admin_zone": "",
        "ons_off": "Onshore",
        "terrain": "Shrubland",
        "dscv_basis": "Geology & seismic",
        "dis_dat_yr": 2002,
        "dsc_wel_nm": "Acrus 1",
        "dsc_w_tdm": 2789.8,
        "dsc_w_tdft": 9153.0,
        "dsc_wbhlu": "Pre-Permian Unit",
        "dsc_wbhlt": "siltstone",
        "dsc_wbh": "Carboniferous",
        "dpwl_name": "Acrus 1",
        "dpwl_tdm": 2789.8,
        "dpwl_tdft": 9153.0,
        "dpwl_bhlu": "Pre-Permian Unit",
        "dpwl_bhlt": "siltstone",
        "dp_well_bh": "Carboniferous",
        "wd_max_m": null,
        "elev_mx_m": 68.7,
        "wd_max_ft": null,
        "elev_mx_ft": 225.39,
        "por_max": 9.39999962,
        "por_qu": "",
        "prmb_max": 10.0,
        "prmb_quun": "millidarcies",
        "oil_in_plc": null,
        "oil_rec_mm": null,
        "oil_rec_f": null,
        "oil_rs_das": "",
        "oil_rs_dat": null,
        "gas_in_plc": 700.0,
        "gas_recov": 500.0,
        "gas_rec_f": 71.0,
        "gas_resdas": "Poor estimate",
        "gas_res_dt": "2002-05-15",
        "cond_place": null,
        "crec_mmbbl": 0.005,
        "cond_r_fac": null,
        "cond_rs_ds": "Poor estimate",
        "cond_date": "2012-10-15",
        "oil_rem_mm": null,
        "gas_rem_pp": 500.0,
        "crem_mmbbl": 0.005,
        "rem_pp_mmb": 0.09,
        "oil_prrfie": "",
        "oil_cp_dat": null,
        "oil_cp": null,
        "oil_prty": "",
        "oil_prquun": "",
        "oil_prdasr": "",
        "gas_prrfie": "Wellington",
        "gas_cp_dat": null,
        "c_gasmmscf": null,
        "gas_prty": "",
        "gas_prquun": "",
        "cumgas_ds": "",
        "cond_cpfie": "Wellington",
        "cnd_cp_yea": null,
        "cond_cp": null,
        "cond_cp_ty": "",
        "cond_cpq": "",
        "cnd_prdasr": "",
        "tot_pr_yr": null,
        "tot_pr_mmb": 0.0,
        "dev_dec_dt": null,
        "dev_appr": null,
        "prod_start": "2002-07-15",
        "prod_stop": null,
        "temp_sh_d": null,
        "prod_imdt": null,
        "prod_eor": null,
        "latitude": "S 27`43'20.724\"",
        "longitude": "E 141`50'21.341\"",
        "lat_dec": -27.722423,
        "long_dec": 141.839261,
        "coord_qual": "Reliable with datum",
        "coord_loc": "Discovery well",
        "datum": "W.G.S. 84",
        "dsc_wbh_yr": 298.89,
        "dpwl_bhyr": 298.89,
        "data_own": "IHS Energy",
        "cond_rs_tx": "October 2012",
        "dev_apr_tx": "",
        "dev_dec_tx": "",
        "dis_dat_tx": "May 2002",
        "gas_rsdttx": "May 2002",
        "fld_re_dtt": "",
        "oilrs_datt": "",
        "prod_endtt": "",
        "prod_imdtt": "",
        "prod_stdtt": "July 2002",
        "prod_stopt": "",
        "temp_sh_dt": "",
        "sit_code": "ONS",
        "terrain_c": "SB",
        "fie_id": 100000023494.0,
        "gp_id": 100000001272.0,
        "anl_prod": "Y",
        "bib_flg": "Y",
        "oil_pragfl": "",
        "cumgas_flg": "Y",
        "cnd_pragf": "Y",
        "field_o0": "Y",
        "imag_flag": "Y",
        "rmrks_flag": "Y",
        "uni_gp_flg": "N",
        "gas_ip_oe": 0.116667,
        "gas_rec_oe": 0.083333,
        "w84_lat": "S 27`43'20.724\"",
        "w84_lon": "E 141`50'21.341\"",
        "w84_lat_dg": -27.722423,
        "w84_lon_dg": 141.839261,
        "dattrfqual": "Original WGS84 Coord",
        "dattrf_id": null,
        "lt_an_oilb": null,
        "lt_an_gasf": null,
        "lt_an_conb": null,
        "lt_an_year": null,
        "field_type": "Actual",
        "field_lgkm": 1.07,
        "field_wdkm": 0.84,
        "cumul_w3": "",
        "cumul_r6": "",
        "cumul_n9": "Y",
        "resourc12": "Conventional",
        "unc_type1": "",
        "offsh_d15": "",
        "tot_in_18": 0.12,
        "tot_rec21": 0.09,
        "latest_24": null,
        "latest_27": null,
        "latest_30": null,
        "latest_33": null,
        "latest_36": null,
        "latest_39": null,
        "monthly42": "N"
      },
      "geometry": {
        "type": "Point",
        "coordinates": [
          15789358.870700002,
          -3213493.2496000007
        ]
      }
    }
  ]
}